[{"OBJECT_NAME":"STARLINK-34325","OBJECT_ID":"2025-120G","EPOCH":"2026-03-09T10:26:18.548160","MEAN_MOTION":15.30188654,"ECCENTRICITY":0.00011022,"INCLINATION":53.1572,"RA_OF_ASC_NODE":118.1242,"ARG_OF_PERICENTER":91.8353,"MEAN_ANOMALY":268.2774,"EPHEMERIS_TYPE":0,"CLASSIFICATION_TYPE":"U","NORAD_CAT_ID":64262,"ELEMENT_SET_NO":999,"REV_AT_EPOCH":4387,"BSTAR":0.00078371559,"MEAN_MOTION_DOT":0.00022916,"MEAN_MOTION_DDOT":0},{"OBJECT_NAME":"SL-3 R\/B","OBJECT_ID":"1982-027B","EPOCH":"2026-03-09T22:44:40.208640","MEAN_MOTION":15.28335844,"ECCENTRICITY":0.00065199,"INCLINATION":81.188,"RA_OF_ASC_NODE":37.4466,"ARG_OF_PERICENTER":276.581,"MEAN_ANOMALY":83.4683,"EPHEMERIS_TYPE":0,"CLASSIFICATION_TYPE":"U","NORAD_CAT_ID":13121,"ELEMENT_SET_NO":999,"REV_AT_EPOCH":39859,"BSTAR":0.00030526741,"MEAN_MOTION_DOT":8.453e-5,"MEAN_MOTION_DDOT":0}]
